[{"OBJECT_NAME":"STARLINK-5498","OBJECT_ID":"2023-021F","EPOCH":"2026-03-09T17:21:36.855936","MEAN_MOTION":14.98324975,"ECCENTRICITY":0.00034116,"INCLINATION":69.9995,"RA_OF_ASC_NODE":204.3534,"ARG_OF_PERICENTER":274.9157,"MEAN_ANOMALY":85.1613,"EPHEMERIS_TYPE":0,"CLASSIFICATION_TYPE":"U","NORAD_CAT_ID":55633,"ELEMENT_SET_NO":999,"REV_AT_EPOCH":16830,"BSTAR":-4.7725284e-5,"MEAN_MOTION_DOT":-6.62e-6,"MEAN_MOTION_DDOT":0},{"OBJECT_NAME":"CZ-6A DEB","OBJECT_ID":"2022-151YG","EPOCH":"2026-03-09T16:37:27.747264","MEAN_MOTION":14.90305171,"ECCENTRICITY":0.005448,"INCLINATION":98.6541,"RA_OF_ASC_NODE":144.0499,"ARG_OF_PERICENTER":194.4626,"MEAN_ANOMALY":165.5033,"EPHEMERIS_TYPE":0,"CLASSIFICATION_TYPE":"U","NORAD_CAT_ID":55534,"ELEMENT_SET_NO":999,"REV_AT_EPOCH":17121,"BSTAR":0.0042122496,"MEAN_MOTION_DOT":0.00042257,"MEAN_MOTION_DDOT":0}]
